start=new Date('2022-04-19T00:00:00.000Z').valueOf();
sats=[{"ARG_OF_PERICENTER":"71.3097","REV_AT_EPOCH":"10499","ELEMENT_SET_NO":"999","COUNTRY_CODE":"US","MEAN_MOTION_DDOT":"0.0000000000000","MEAN_MOTION":"15.06413277","DECAY_DATE":null,"CENTER_NAME":"EARTH","EPOCH":"2022-04-18T19:01:44.101056","TLE_LINE1":"1 45712U 20035BH  22108.79287154  .00012708  00000-0  87019-3 0  9991","OBJECT_TYPE":"PAYLOAD","MEAN_MOTION_DOT":"0.00012708","EPHEMERIS_TYPE":"0","LAUNCH_DATE":"2020-06-04","OBJECT_NAME":"STARLINK-1434","GP_ID":"201578670","TIME_SYSTEM":"UTC","CLASSIFICATION_TYPE":"U","SEMIMAJOR_AXIS":"6925.308","ECCENTRICITY":"0.00015190","SITE":"AFETR","NORAD_CAT_ID":"45712","RA_OF_ASC_NODE":"295.2808","MEAN_ELEMENT_THEORY":"SGP4","PERIOD":"95.591","OBJECT_ID":"2020-035BH","PERIAPSIS":"546.121","REF_FRAME":"TEME","RCS_SIZE":"LARGE","TLE_LINE2":"2 45712  53.0543 295.2808 0001519  71.3097 288.8056 15.06413277104994","FILE":"3407402","MEAN_ANOMALY":"288.8056","APOAPSIS":"548.225","BSTAR":"0.00087019000000","INCLINATION":"53.0543"},{"ECCENTRICITY":"0.00014740","NORAD_CAT_ID":"45713","SITE":"AFETR","RA_OF_ASC_NODE":"315.1763","LAUNCH_DATE":"2020-06-04","EPHEMERIS_TYPE":"0","GP_ID":"201577418","OBJECT_NAME":"STARLINK-1436","SEMIMAJOR_AXIS":"6925.313","CLASSIFICATION_TYPE":"U","TIME_SYSTEM":"UTC","DECAY_DATE":null,"EPOCH":"2022-04-18T19:30:56.025216","CENTER_NAME":"EARTH","OBJECT_TYPE":"PAYLOAD","TLE_LINE1":"1 45713U 20035BJ  22108.81314844  .00015911  00000-0  10843-2 0  9991","MEAN_MOTION_DOT":"0.00015911","REV_AT_EPOCH":"10470","ARG_OF_PERICENTER":"63.1302","COUNTRY_CODE":"US","ELEMENT_SET_NO":"999","MEAN_MOTION":"15.06411756","MEAN_MOTION_DDOT":"0.0000000000000","BSTAR":"0.00108430000000","APOAPSIS":"548.198","INCLINATION":"53.0532","FILE":"3407402","MEAN_ANOMALY":"296.9837","REF_FRAME":"TEME","PERIAPSIS":"546.157","RCS_SIZE":"LARGE","TLE_LINE2":"2 45713  53.0532 315.1763 0001474  63.1302 296.9837 15.06411756104709","MEAN_ELEMENT_THEORY":"SGP4","OBJECT_ID":"2020-035BJ","PERIOD":"95.591"},{"RCS_SIZE":"LARGE","TLE_LINE2":"2 45714  53.0548 295.2253 0001833  53.9602 306.1556 15.06386790104990","PERIAPSIS":"545.985","REF_FRAME":"TEME","PERIOD":"95.593","OBJECT_ID":"2020-035BK","MEAN_ELEMENT_THEORY":"SGP4","APOAPSIS":"548.523","BSTAR":"0.00014714000000","INCLINATION":"53.0548","MEAN_ANOMALY":"306.1556","FILE":"3407402","TLE_LINE1":"1 45714U 20035BK  22108.80393622  .00001910  00000-0  14714-3 0  9998","OBJECT_TYPE":"PAYLOAD","MEAN_MOTION_DOT":"0.00001910","DECAY_DATE":null,"CENTER_NAME":"EARTH","EPOCH":"2022-04-18T19:17:40.089408","MEAN_MOTION_DDOT":"0.0000000000000","MEAN_MOTION":"15.06386790","ARG_OF_PERICENTER":"53.9602","REV_AT_EPOCH":"10499","ELEMENT_SET_NO":"999","COUNTRY_CODE":"US","SITE":"AFETR","NORAD_CAT_ID":"45714","RA_OF_ASC_NODE":"295.2253","ECCENTRICITY":"0.00018330","OBJECT_NAME":"STARLINK-1437","GP_ID":"201577668","TIME_SYSTEM":"UTC","CLASSIFICATION_TYPE":"U","SEMIMAJOR_AXIS":"6925.389","EPHEMERIS_TYPE":"0","LAUNCH_DATE":"2020-06-04"},{"MEAN_ELEMENT_THEORY":"SGP4","PERIOD":"95.592","OBJECT_ID":"2020-038A","PERIAPSIS":"545.868","REF_FRAME":"TEME","RCS_SIZE":"LARGE","TLE_LINE2":"2 45730  53.0555 136.3640 0001938  48.8133 311.3023 15.06401031102002","FILE":"3407402","MEAN_ANOMALY":"311.3023","APOAPSIS":"548.553","BSTAR":"0.00012877000000","INCLINATION":"53.0555","ARG_OF_PERICENTER":"48.8133","REV_AT_EPOCH":"10200","ELEMENT_SET_NO":"999","COUNTRY_CODE":"US","MEAN_MOTION_DDOT":"0.0000000000000","MEAN_MOTION":"15.06401031","DECAY_DATE":null,"EPOCH":"2022-04-18T13:11:24.648576","CENTER_NAME":"EARTH","TLE_LINE1":"1 45730U 20038A   22108.54959084  .00001637  00000-0  12877-3 0  9994","OBJECT_TYPE":"PAYLOAD","MEAN_MOTION_DOT":"0.00001637","EPHEMERIS_TYPE":"0","LAUNCH_DATE":"2020-06-13","OBJECT_NAME":"STARLINK-1461","GP_ID":"201578420","TIME_SYSTEM":"UTC","CLASSIFICATION_TYPE":"U","SEMIMAJOR_AXIS":"6925.345","ECCENTRICITY":"0.00019380","SITE":"AFETR","NORAD_CAT_ID":"45730","RA_OF_ASC_NODE":"136.3640"},{"MEAN_MOTION_DOT":"0.00001267","OBJECT_TYPE":"PAYLOAD","TLE_LINE1":"1 45731U 20038B   22108.76339039  .00001267  00000-0  10396-3 0  9994","CENTER_NAME":"EARTH","EPOCH":"2022-04-18T18:19:16.929696","DECAY_DATE":null,"MEAN_MOTION":"15.06384967","MEAN_MOTION_DDOT":"0.0000000000000","COUNTRY_CODE":"US","ELEMENT_SET_NO":"999","REV_AT_EPOCH":"10202","ARG_OF_PERICENTER":"59.6003","RA_OF_ASC_NODE":"135.4056","NORAD_CAT_ID":"45731","SITE":"AFETR","ECCENTRICITY":"0.00016580","SEMIMAJOR_AXIS":"6925.395","CLASSIFICATION_TYPE":"U","TIME_SYSTEM":"UTC","GP_ID":"201578671","OBJECT_NAME":"STARLINK-1465","LAUNCH_DATE":"2020-06-13","EPHEMERIS_TYPE":"0","TLE_LINE2":"2 45731  53.0536 135.4056 0001658  59.6003 300.5150 15.06384967102029","RCS_SIZE":"LARGE","REF_FRAME":"TEME","PERIAPSIS":"546.111","OBJECT_ID":"2020-038B","PERIOD":"95.593","MEAN_ELEMENT_THEORY":"SGP4","INCLINATION":"53.0536","BSTAR":"0.00010396000000","APOAPSIS":"548.408","MEAN_ANOMALY":"300.5150","FILE":"3407402"},{"FILE":"3407154","MEAN_ANOMALY":"312.2961","INCLINATION":"53.0540","BSTAR":"-0.00001704700000","APOAPSIS":"548.521","MEAN_ELEMENT_THEORY":"SGP4","OBJECT_ID":"2020-038C","PERIOD":"95.592","REF_FRAME":"TEME","PERIAPSIS":"545.916","TLE_LINE2":"2 45732  53.0540 136.6409 0001881  47.8188 312.2961 15.06398370103104","RCS_SIZE":"LARGE","LAUNCH_DATE":"2020-06-13","EPHEMERIS_TYPE":"0","SEMIMAJOR_AXIS":"6925.354","CLASSIFICATION_TYPE":"U","TIME_SYSTEM":"UTC","GP_ID":"201552239","OBJECT_NAME":"STARLINK-1466","ECCENTRICITY":"0.00018810","RA_OF_ASC_NODE":"136.6409","NORAD_CAT_ID":"45732","SITE":"AFETR","COUNTRY_CODE":"US","ELEMENT_SET_NO":"999","REV_AT_EPOCH":"10310","ARG_OF_PERICENTER":"47.8188","MEAN_MOTION":"15.06398370","MEAN_MOTION_DDOT":"0.0000000000000","CENTER_NAME":"EARTH","EPOCH":"2022-04-18T11:41:10.687200","DECAY_DATE":null,"MEAN_MOTION_DOT":"-0.00000536","OBJECT_TYPE":"PAYLOAD","TLE_LINE1":"1 45732U 20038C   22108.48692925 -.00000536  00000-0 -17047-4 0  9991"},{"FILE":"3407133","MEAN_ANOMALY":"305.1676","INCLINATION":"53.0513","BSTAR":"0.00032078000000","APOAPSIS":"548.528","MEAN_ELEMENT_THEORY":"SGP4","OBJECT_ID":"2020-038D","PERIOD":"95.592","REF_FRAME":"TEME","PERIAPSIS":"545.892","TLE_LINE2":"2 45733  53.0513 136.6179 0001903  54.9491 305.1676 15.06401073103109","RCS_SIZE":"LARGE","LAUNCH_DATE":"2020-06-13","EPHEMERIS_TYPE":"0","SEMIMAJOR_AXIS":"6925.345","TIME_SYSTEM":"UTC","CLASSIFICATION_TYPE":"U","GP_ID":"201552262","OBJECT_NAME":"STARLINK-1467","ECCENTRICITY":"0.00019030","RA_OF_ASC_NODE":"136.6179","NORAD_CAT_ID":"45733","SITE":"AFETR","COUNTRY_CODE":"US","ELEMENT_SET_NO":"999","REV_AT_EPOCH":"10310","ARG_OF_PERICENTER":"54.9491","MEAN_MOTION":"15.06401073","MEAN_MOTION_DDOT":"0.0000000000000","CENTER_NAME":"EARTH","EPOCH":"2022-04-18T11:51:47.950272","DECAY_DATE":null,"MEAN_MOTION_DOT":"0.00004500","OBJECT_TYPE":"PAYLOAD","TLE_LINE1":"1 45733U 20038D   22108.49430498  .00004500  00000-0  32078-3 0  9991"},{"PERIAPSIS":"545.617","REF_FRAME":"TEME","RCS_SIZE":"LARGE","TLE_LINE2":"2 45734  53.0547 135.2113 0002263  48.0013 312.1168 15.06409613102037","MEAN_ELEMENT_THEORY":"SGP4","PERIOD":"95.592","OBJECT_ID":"2020-038E","APOAPSIS":"548.751","BSTAR":"0.00030524000000","INCLINATION":"53.0547","FILE":"3407402","MEAN_ANOMALY":"312.1168","DECAY_DATE":null,"CENTER_NAME":"EARTH","EPOCH":"2022-04-18T19:22:56.755776","TLE_LINE1":"1 45734U 20038E   22108.80760134  .00004269  00000-0  30524-3 0  9996","OBJECT_TYPE":"PAYLOAD","MEAN_MOTION_DOT":"0.00004269","ARG_OF_PERICENTER":"48.0013","REV_AT_EPOCH":"10203","ELEMENT_SET_NO":"999","COUNTRY_CODE":"US","MEAN_MOTION_DDOT":"0.0000000000000","MEAN_MOTION":"15.06409613","ECCENTRICITY":"0.00022630","SITE":"AFETR","NORAD_CAT_ID":"45734","RA_OF_ASC_NODE":"135.2113","EPHEMERIS_TYPE":"0","LAUNCH_DATE":"2020-06-13","OBJECT_NAME":"STARLINK-1468","GP_ID":"201577920","TIME_SYSTEM":"UTC","CLASSIFICATION_TYPE":"U","SEMIMAJOR_AXIS":"6925.319"},{"INCLINATION":"53.0528","BSTAR":"0.00061017000000","APOAPSIS":"548.303","FILE":"3407402","MEAN_ANOMALY":"306.6824","REF_FRAME":"TEME","PERIAPSIS":"546.079","TLE_LINE2":"2 45735  53.0528 135.3441 0001606  53.4313 306.6824 15.06407367102025","RCS_SIZE":"LARGE","MEAN_ELEMENT_THEORY":"SGP4","OBJECT_ID":"2020-038F","PERIOD":"95.592","ECCENTRICITY":"0.00016060","RA_OF_ASC_NODE":"135.3441","NORAD_CAT_ID":"45735","SITE":"AFETR","LAUNCH_DATE":"2020-06-13","EPHEMERIS_TYPE":"0","SEMIMAJOR_AXIS":"6925.326","TIME_SYSTEM":"UTC","CLASSIFICATION_TYPE":"U","GP_ID":"201578171","OBJECT_NAME":"STARLINK-1471","CENTER_NAME":"EARTH","EPOCH":"2022-04-18T18:40:30.248832","DECAY_DATE":null,"MEAN_MOTION_DOT":"0.00008820","OBJECT_TYPE":"PAYLOAD","TLE_LINE1":"1 45735U 20038F   22108.77812788  .00008820  00000-0  61017-3 0  9994","COUNTRY_CODE":"US","ELEMENT_SET_NO":"999","REV_AT_EPOCH":"10202","ARG_OF_PERICENTER":"53.4313","MEAN_MOTION":"15.06407367","MEAN_MOTION_DDOT":"0.0000000000000"},{"MEAN_MOTION_DOT":"0.00008365","OBJECT_TYPE":"PAYLOAD","TLE_LINE1":"1 45736U 20038G   22108.72593963  .00008365  00000-0  24563-3 0  9990","CENTER_NAME":"EARTH","EPOCH":"2022-04-18T17:25:21.184032","DECAY_DATE":null,"MEAN_MOTION":"15.36012728","MEAN_MOTION_DDOT":"0.0000000000000","COUNTRY_CODE":"US","ELEMENT_SET_NO":"999","REV_AT_EPOCH":"10224","ARG_OF_PERICENTER":"80.1604","RA_OF_ASC_NODE":"119.8631","NORAD_CAT_ID":"45736","SITE":"AFETR","ECCENTRICITY":"0.00034670","SEMIMAJOR_AXIS":"6836.051","TIME_SYSTEM":"UTC","CLASSIFICATION_TYPE":"U","GP_ID":"201576919","OBJECT_NAME":"STARLINK-1472","LAUNCH_DATE":"2020-06-13","EPHEMERIS_TYPE":"0","TLE_LINE2":"2 45736  53.0613 119.8631 0003467  80.1604 279.9789 15.36012728102248","RCS_SIZE":"LARGE","REF_FRAME":"TEME","PERIAPSIS":"455.546","OBJECT_ID":"2020-038G","PERIOD":"93.749","MEAN_ELEMENT_THEORY":"SGP4","INCLINATION":"53.0613","BSTAR":"0.00024563000000","APOAPSIS":"460.286","MEAN_ANOMALY":"279.9789","FILE":"3407402"}];
